{"type": "FeatureCollection", "features": [ {"type": "Feature", "properties": {"norad_id": 37003, "name": "FENGYUN 1C DEB", "group": "fengyun-1c-debris", "lat": 80.85589897147005, "lon": -50.554687141143816, "alt_km": 840.2357876671913, "timestamp": "2025-12-27T17:24:57.694555+00:00", "meta": {"OBJECT_NAME": "FENGYUN 1C DEB", "OBJECT_ID": "1999-025ECK", "EPOCH": "2025-12-26T20:57:12.153312", "MEAN_MOTION": 13.96245393, "ECCENTRICITY": 0.00970917, "INCLINATION": 98.8449, "RA_OF_ASC_NODE": 23.944, "ARG_OF_PERICENTER": 123.6459, "MEAN_ANOMALY": 1.3788, "EPHEMERIS_TYPE": 0, "CLASSIFICATION_TYPE": "U", "NORAD_CAT_ID": 37003, "ELEMENT_SET_NO": 999, "REV_AT_EPOCH": 60854, "BSTAR": 0.00078031534, "MEAN_MOTION_DOT": 1.076e-05, "MEAN_MOTION_DDOT": 0}, "tle": {"line1": "1 37003U 99025ECK 25360.87305733  .00001076  00000+0  78032-3 0  9996", "line2": "2 37003  98.8449  23.9440 0097091 123.6459   1.3788 13.96245393608540"}}, "geometry": {"type": "Point", "coordinates": [-50.554687141143816, 80.85589897147005]}}, {"type": "Feature", "properties": {"norad_id": 37006, "name": "FENGYUN 1C DEB", "group": "fengyun-1c-debris", "lat": 11.132712088876522, "lon": -110.02152558708332, "alt_km": 907.4282155114615, "timestamp": "2025-12-27T17:24:57.694565+00:00", "meta": {"OBJECT_NAME": "FENGYUN 1C DEB", "OBJECT_ID": "1999-025ECN", "EPOCH": "2025-12-26T23:07:52.665600", "MEAN_MOTION": 14.49003217, "ECCENTRICITY": 0.0255175, "INCLINATION": 99.2978, "RA_OF_ASC_NODE": 250.9863, "ARG_OF_PERICENTER": 205.7193, "MEAN_ANOMALY": 153.1126, "EPHEMERIS_TYPE": 0, "CLASSIFICATION_TYPE": "U", "NORAD_CAT_ID": 37006, "ELEMENT_SET_NO": 999, "REV_AT_EPOCH": 65320, "BSTAR": 0.00071956, "MEAN_MOTION_DOT": 4.069e-05, "MEAN_MOTION_DDOT": 0}, "tle": {"line1": "1 37006U 99025ECN 25360.96380400  .00004069  00000+0  71956-3 0  9996", "line2": "2 37006  99.2978 250.9863 0255175 205.7193 153.1126 14.49003217653203"}}, "geometry": {"type": "Point", "coordinates": [-110.02152558708332, 11.132712088876522]}}, {"type": "Feature", "properties": {"norad_id": 37008, "name": "FENGYUN 1C DEB", "group": "fengyun-1c-debris", "lat": 3.9856948102049765, "lon": 120.1133059797321, "alt_km": 908.7126713545467, "timestamp": "2025-12-27T17:24:57.694579+00:00", "meta": {"OBJECT_NAME": "FENGYUN 1C DEB", "OBJECT_ID": "1999-025ECQ", "EPOCH": "2025-12-27T02:02:49.555392", "MEAN_MOTION": 14.07984222, "ECCENTRICITY": 0.00628874, "INCLINATION": 99.1355, "RA_OF_ASC_NODE": 120.1079, "ARG_OF_PERICENTER": 214.1348, "MEAN_ANOMALY": 145.577, "EPHEMERIS_TYPE": 0, "CLASSIFICATION_TYPE": "U", "NORAD_CAT_ID": 37008, "ELEMENT_SET_NO": 999, "REV_AT_EPOCH": 60516, "BSTAR": 0.0011115818, "MEAN_MOTION_DOT": 1.878e-05, "MEAN_MOTION_DDOT": 0}, "tle": {"line1": "1 37008U 99025ECQ 25361.08529578  .00001878  00000+0  11116-2 0  9999", "line2": "2 37008  99.1355 120.1079 0062887 214.1348 145.5770 14.07984222605162"}}, "geometry": {"type": "Point", "coordinates": [120.1133059797321, 3.9856948102049765]}}, {"type": "Feature", "properties": {"norad_id": 37017, "name": "FENGYUN 1C DEB", "group": "fengyun-1c-debris", "lat": -61.950093899587195, "lon": -36.43805953920997, "alt_km": 578.3067867925765, "timestamp": "2025-12-27T17:24:57.694589+00:00", "meta": {"OBJECT_NAME": "FENGYUN 1C DEB", "OBJECT_ID": "1999-025ECZ", "EPOCH": "2025-12-25T14:01:57.704160", "MEAN_MOTION": 14.40919347, "ECCENTRICITY": 0.0281, "INCLINATION": 98.792, "RA_OF_ASC_NODE": 304.4725, "ARG_OF_PERICENTER": 327.0532, "MEAN_ANOMALY": 31.341, "EPHEMERIS_TYPE": 0, "CLASSIFICATION_TYPE": "U", "NORAD_CAT_ID": 37017, "ELEMENT_SET_NO": 999, "REV_AT_EPOCH": 61346, "BSTAR": 0.0020644, "MEAN_MOTION_DOT": 0.00010567, "MEAN_MOTION_DDOT": 0}, "tle": {"line1": "1 37017U 99025ECZ 25359.58469565  .00010567  00000+0  20644-2 0  9991", "line2": "2 37017  98.7920 304.4725 0281000 327.0532  31.3410 14.40919347613467"}}, "geometry": {"type": "Point", "coordinates": [-36.43805953920997, -61.950093899587195]}}, {"type": "Feature", "properties": {"norad_id": 37021, "name": "FENGYUN 1C DEB", "group": "fengyun-1c-debris", "lat": -55.1426430577041, "lon": 30.138162306023556, "alt_km": 803.4688859301214, "timestamp": "2025-12-27T17:24:57.694599+00:00", "meta": {"OBJECT_NAME": "FENGYUN 1C DEB", "OBJECT_ID": "1999-025EDD", "EPOCH": "2025-12-26T06:46:16.178880", "MEAN_MOTION": 14.3232966, "ECCENTRICITY": 0.0175992, "INCLINATION": 98.3848, "RA_OF_ASC_NODE": 16.5161, "ARG_OF_PERICENTER": 211.6097, "MEAN_ANOMALY": 211.2518, "EPHEMERIS_TYPE": 0, "CLASSIFICATION_TYPE": "U", "NORAD_CAT_ID": 37021, "ELEMENT_SET_NO": 999, "REV_AT_EPOCH": 70248, "BSTAR": 0.00068524, "MEAN_MOTION_DOT": 2.15e-05, "MEAN_MOTION_DDOT": 0}, "tle": {"line1": "1 37021U 99025EDD 25360.28213170  .00002150  00000+0  68524-3 0  9993", "line2": "2 37021  98.3848  16.5161 0175992 211.6097 211.2518 14.32329660702481"}}, "geometry": {"type": "Point", "coordinates": [30.138162306023556, -55.1426430577041]}}, {"type": "Feature", "properties": {"norad_id": 37028, "name": "FENGYUN 1C DEB", "group": "fengyun-1c-debris", "lat": 20.304336833975242, "lon": 93.64034230373883, "alt_km": 821.0284873905093, "timestamp": "2025-12-27T17:24:57.694609+00:00", "meta": {"OBJECT_NAME": "FENGYUN 1C DEB", "OBJECT_ID": "1999-025EDL", "EPOCH": "2025-12-27T11:36:36.020736", "MEAN_MOTION": 14.22848346, "ECCENTRICITY": 0.0034462, "INCLINATION": 99.2459, "RA_OF_ASC_NODE": 269.9313, "ARG_OF_PERICENTER": 57.315, "MEAN_ANOMALY": 303.1342, "EPHEMERIS_TYPE": 0, "CLASSIFICATION_TYPE": "U", "NORAD_CAT_ID": 37028, "ELEMENT_SET_NO": 999, "REV_AT_EPOCH": 60685, "BSTAR": 0.0020044, "MEAN_MOTION_DOT": 4.483e-05, "MEAN_MOTION_DDOT": 0}, "tle": {"line1": "1 37028U 99025EDL 25361.48375024  .00004483  00000+0  20044-2 0  9995", "line2": "2 37028  99.2459 269.9313 0034462  57.3150 303.1342 14.22848346606856"}}, "geometry": {"type": "Point", "coordinates": [93.64034230373883, 20.304336833975242]}}, {"type": "Feature", "properties": {"norad_id": 37036, "name": "FENGYUN 1C DEB", "group": "fengyun-1c-debris", "lat": -37.05229361681804, "lon": 0.4840190835618012, "alt_km": 830.2821387912791, "timestamp": "2025-12-27T17:24:57.694619+00:00", "meta": {"OBJECT_NAME": "FENGYUN 1C DEB", "OBJECT_ID": "1999-025EDU", "EPOCH": "2025-12-26T05:39:48.291840", "MEAN_MOTION": 14.03583537, "ECCENTRICITY": 0.0123956, "INCLINATION": 98.7147, "RA_OF_ASC_NODE": 352.4063, "ARG_OF_PERICENTER": 17.6155, "MEAN_ANOMALY": 342.9254, "EPHEMERIS_TYPE": 0, "CLASSIFICATION_TYPE": "U", "NORAD_CAT_ID": 37036, "ELEMENT_SET_NO": 999, "REV_AT_EPOCH": 63937, "BSTAR": 0.00030253, "MEAN_MOTION_DOT": 4.66e-06, "MEAN_MOTION_DDOT": 0}, "tle": {"line1": "1 37036U 99025EDU 25360.23597560  .00000466  00000+0  30253-3 0  9998", "line2": "2 37036  98.7147 352.4063 0123956  17.6155 342.9254 14.03583537639377"}}, "geometry": {"type": "Point", "coordinates": [0.4840190835618012, -37.05229361681804]}}, {"type": "Feature", "properties": {"norad_id": 37044, "name": "FENGYUN 1C DEB", "group": "fengyun-1c-debris", "lat": 27.33353094938127, "lon": -68.43445931108224, "alt_km": 667.929408151098, "timestamp": "2025-12-27T17:24:57.694629+00:00", "meta": {"OBJECT_NAME": "FENGYUN 1C DEB", "OBJECT_ID": "1999-025EEC", "EPOCH": "2025-12-27T02:42:09.986112", "MEAN_MOTION": 13.71060007, "ECCENTRICITY": 0.05059892, "INCLINATION": 98.9609, "RA_OF_ASC_NODE": 106.3129, "ARG_OF_PERICENTER": 123.4506, "MEAN_ANOMALY": 241.6085, "EPHEMERIS_TYPE": 0, "CLASSIFICATION_TYPE": "U", "NORAD_CAT_ID": 37044, "ELEMENT_SET_NO": 999, "REV_AT_EPOCH": 84055, "BSTAR": 0.0043513976, "MEAN_MOTION_DOT": 9.713e-05, "MEAN_MOTION_DDOT": 0}, "tle": {"line1": "1 37044U 99025EEC 25361.11261558  .00009713  00000+0  43514-2 0  9997", "line2": "2 37044  98.9609 106.3129 0505989 123.4506 241.6085 13.71060007840553"}}, "geometry": {"type": "Point", "coordinates": [-68.43445931108224, 27.33353094938127]}}, {"type": "Feature", "properties": {"norad_id": 37046, "name": "FENGYUN 1C DEB", "group": "fengyun-1c-debris", "lat": -32.456252986393444, "lon": -169.90596939548175, "alt_km": 792.2389660740282, "timestamp": "2025-12-27T17:24:57.694639+00:00", "meta": {"OBJECT_NAME": "FENGYUN 1C DEB", "OBJECT_ID": "1999-025EEE", "EPOCH": "2025-12-27T06:18:14.948064", "MEAN_MOTION": 14.24888327, "ECCENTRICITY": 0.0048808, "INCLINATION": 98.5435, "RA_OF_ASC_NODE": 15.1296, "ARG_OF_PERICENTER": 264.0416, "MEAN_ANOMALY": 95.5199, "EPHEMERIS_TYPE": 0, "CLASSIFICATION_TYPE": "U", "NORAD_CAT_ID": 37046, "ELEMENT_SET_NO": 999, "REV_AT_EPOCH": 64388, "BSTAR": 0.00074623, "MEAN_MOTION_DOT": 1.722e-05, "MEAN_MOTION_DDOT": 0}, "tle": {"line1": "1 37046U 99025EEE 25361.26267301  .00001722  00000+0  74623-3 0  9995", "line2": "2 37046  98.5435  15.1296 0048808 264.0416  95.5199 14.24888327643885"}}, "geometry": {"type": "Point", "coordinates": [-169.90596939548175, -32.456252986393444]}}, {"type": "Feature", "properties": {"norad_id": 37048, "name": "FENGYUN 1C DEB", "group": "fengyun-1c-debris", "lat": 75.99419081738985, "lon": -177.04216928655882, "alt_km": 847.7590291023216, "timestamp": "2025-12-27T17:24:57.694651+00:00", "meta": {"OBJECT_NAME": "FENGYUN 1C DEB", "OBJECT_ID": "1999-025EEG", "EPOCH": "2025-12-25T11:04:40.256256", "MEAN_MOTION": 13.65140981, "ECCENTRICITY": 0.0253773, "INCLINATION": 98.8856, "RA_OF_ASC_NODE": 219.722, "ARG_OF_PERICENTER": 116.1093, "MEAN_ANOMALY": 3.5495, "EPHEMERIS_TYPE": 0, "CLASSIFICATION_TYPE": "U", "NORAD_CAT_ID": 37048, "ELEMENT_SET_NO": 999, "REV_AT_EPOCH": 62343, "BSTAR": 0.00024464, "MEAN_MOTION_DOT": 2.1e-06, "MEAN_MOTION_DDOT": 0}, "tle": {"line1": "1 37048U 99025EEG 25359.46157704  .00000210  00000+0  24464-3 0  9990", "line2": "2 37048  98.8856 219.7220 0253773 116.1093   3.5495 13.65140981623431"}}, "geometry": {"type": "Point", "coordinates": [-177.04216928655882, 75.99419081738985]}}]}